[{"OBJECT_NAME":"STARLINK-6144","OBJECT_ID":"2023-083U","EPOCH":"2026-03-09T08:42:20.615904","MEAN_MOTION":15.02523379,"ECCENTRICITY":0.00014695,"INCLINATION":43.0031,"RA_OF_ASC_NODE":83.3416,"ARG_OF_PERICENTER":275.7731,"MEAN_ANOMALY":84.2944,"EPHEMERIS_TYPE":0,"CLASSIFICATION_TYPE":"U","NORAD_CAT_ID":56894,"ELEMENT_SET_NO":999,"REV_AT_EPOCH":15174,"BSTAR":-0.00013382279,"MEAN_MOTION_DOT":-2.01e-5,"MEAN_MOTION_DDOT":0},{"OBJECT_NAME":"CZ-4C DEB","OBJECT_ID":"2010-038D","EPOCH":"2026-03-09T01:12:27.235872","MEAN_MOTION":14.75804828,"ECCENTRICITY":0.01202328,"INCLINATION":97.9532,"RA_OF_ASC_NODE":164.702,"ARG_OF_PERICENTER":229.9203,"MEAN_ANOMALY":129.1417,"EPHEMERIS_TYPE":0,"CLASSIFICATION_TYPE":"U","NORAD_CAT_ID":37568,"ELEMENT_SET_NO":999,"REV_AT_EPOCH":82101,"BSTAR":0.0014631198,"MEAN_MOTION_DOT":0.00011242,"MEAN_MOTION_DDOT":0}]
